STARLINK-35777          
1 66975U 25288S   26068.30416733  .00031837  00000+0  11605-2 0  9993
2 66975  43.0009  26.0425 0001264 270.6434  89.4272 15.27607847 15228
2025-313BC              
1 67298U 25313BC  26068.18968176  .00075331  00000+0  26410-2 0  9997
2 67298  97.3985 144.8110 0008478 328.9209  31.1528 15.29126358  7890
